158P/Kowal-LINEAR,e,7.9348,135.8012,193.2337,4.869507,0.0917227,0.01662101,309.7917,06/24.0/2020,2000,g  9.0,4.0
# From MPEC 2020-L06
159P/LONEOS,e,23.4611,55.0066,4.6272,5.856667,0.0695390,0.38145144,53.1268,06/24.0/2020,2000,g 10.0,4.0
# From MPEC 2019-TG9
160P/LINEAR,e,15.6157,333.3659,12.6590,3.772148,0.1345306,0.52615759,27.5382,06/24.0/2020,2000,g 15.5,2.0
# From MPC 75721
161P/Hartley-IRAS,e,95.7420,1.4667,46.9185,7.727268,0.0458844,0.83452008,252.2134,06/24.0/2020,2000,g  8.5,6.0
# From MPEC 2020-HN5
162P/Siding Spring,e,27.5542,30.9191,357.1171,3.091237,0.1813450,0.58295480,329.7506,06/24.0/2020,2000,g 12.0,4.0
# From MPEC 2020-HN5
163P/NEAT,e,12.7079,102.0921,349.6658,3.769659,0.1346638,0.45185048,43.6109,06/24.0/2020,2000,g 14.5,4.0
# From MPC106349
164P/Christensen,e,16.2534,88.3051,325.8570,3.658195,0.1408652,0.53967275,106.3161,06/24.0/2020,2000,g 11.0,4.0
# From MPC 75721
165P/LINEAR,e,15.8991,0.7597,126.2153,17.90254,0.0130116,0.61473692,95.5201,06/24.0/2020,2000,g 11.5,2.0
# From MPC 75722
166P/NEAT,e,15.3618,64.5003,321.4501,13.83154,0.0191601,0.38212488,126.9208,06/24.0/2020,2000,g  5.5,4.0
# From MPC 75722
167P/CINEOS,e,19.1216,295.6519,344.1872,16.18806,0.0151325,0.27301974,105.7563,06/24.0/2020,2000,g  9.5,2.0
# From MPC102101
168P/Hergenrother,e,21.6131,355.4623,14.9913,3.581916,0.1453888,0.62068622,47.0811,06/24.0/2020,2000,g 15.5,4.0
# From MPEC 2020-L06
169P/NEAT,e,11.2960,176.0902,218.0664,2.601421,0.2349027,0.76797378,184.7771,06/24.0/2020,2000,g 16.0,2.0
# From MPC 89012
170P/Christensen,e,10.1250,142.9214,225.6409,4.198217,0.1145795,0.30343359,241.7844,06/24.0/2020,2000,g 12.0,4.0
# From MPC102102
171P/Spahr,e,21.9336,101.6974,347.1170,3.556482,0.1469512,0.50166193,77.5057,06/24.0/2020,2000,g 13.5,4.0
# From MPEC 2019-VB6
172P/Yeung,e,11.2327,30.8969,209.3811,4.210695,0.1140705,0.20611476,136.6787,06/24.0/2020,2000,g 13.0,4.0
# From MPEC 2020-HN5
173P/Mueller,e,16.4973,100.4007,29.3462,5.700969,0.0724071,0.26052015,320.7541,06/24.0/2020,2000,g  7.5,4.0
# From MPC 92985
174P/Echeclus,e,4.3431,173.2602,162.9227,10.70408,0.0281436,0.45710283,53.1553,06/24.0/2020,2000,g  9.4,2.0
# From MPC114608
175P/Hergenrother,e,6.0778,123.5272,56.2595,3.429797,0.1551677,0.43239536,41.4381,06/24.0/2020,2000,g 14.0,4.0
# From MPC 89015
176P/LINEAR,e,0.2348,345.8876,35.1345,3.193136,0.1727340,0.19298245,207.4717,06/24.0/2020,2000,g 15.1,2.0
# From MPEC 2020-L06
177P/Barnard,e,31.3338,272.3517,60.1571,24.38137,0.0081868,0.95513116,41.3182,06/24.0/2020,2000,g 15.0,4.0
# From MPC105242
178P/Hug-Bell,e,11.0897,102.8742,297.7845,3.630262,0.1424942,0.48178051,356.7786,06/24.0/2020,2000,g 13.5,4.0
# From MPC 75723
179P/Jedicke,e,19.8989,115.5257,296.5177,5.942673,0.0680348,0.30616986,312.1946,06/24.0/2020,2000,g  2.5,8.0
# From MPC100284
180P/NEAT,e,16.8683,84.5571,94.8906,3.861239,0.1299015,0.35331919,215.3129,06/24.0/2020,2000,g 11.0,4.0
# From MPC 89012
181P/Shoemaker-Levy,e,17.4859,35.4116,336.2530,3.871027,0.1294091,0.70037469,287.0292,06/24.0/2020,2000,g 11.5,4.0
# From MPEC 2014-J10
182P/LONEOS,e,16.2344,72.7145,53.8344,2.956211,0.1939103,0.66169498,226.6067,06/24.0/2020,2000,g 18.0,4.0
# From MPC110085
183P/Korlevic-Juric,e,18.6787,5.3029,164.0000,4.519678,0.1025753,0.13963333,96.4045,06/24.0/2020,2000,g 12.5,2.0
# From MPC105242
184P/Lovas,e,4.5729,173.2584,186.4255,3.794798,0.1333279,0.55115530,343.4444,06/24.0/2020,2000,g 13.5,4.0
# From MPC109593
185P/Petriew,e,13.9979,214.0958,181.8837,3.099515,0.1806190,0.69890398,158.6787,06/24.0/2020,2000,g 15.0,4.0
# From MPEC 2020-L06
186P/Garradd,e,28.5278,326.7868,283.9265,5.011833,0.0878434,0.12436893,36.6337,06/24.0/2020,2000,g  7.5,4.0
# From MPC104795
187P/LINEAR,e,13.6347,109.9235,132.2055,4.573706,0.1007632,0.15241514,77.3631,06/24.0/2020,2000,g  9.0,4.0
# From MPC106349
188P/LINEAR-Mueller,e,10.5198,358.9562,26.5882,4.376221,0.1076602,0.41521423,131.6812,06/24.0/2020,2000,g 11.5,4.0
# From MPC106349
189P/NEAT,e,20.0742,281.7412,16.2537,2.947237,0.1947967,0.58873132,205.0100,06/24.0/2020,2000,g 19.0,4.0
# From MPC 75724
190P/Mueller,e,2.1741,335.5767,50.2796,4.235809,0.1130575,0.52078020,173.9522,06/24.0/2020,2000,g 13.0,4.0
# From MPC 92277
191P/McNaught,e,8.8437,98.2398,283.9242,3.638697,0.1419990,0.38646675,321.8227,06/24.0/2020,2000,g 13.0,4.0
# From MPC 75724
192P/Shoemaker-Levy,e,24.5348,51.6433,312.9055,6.478675,0.0597688,0.77279586,274.4716,06/24.0/2020,2000,g 15.0,4.0
# From MPC 92277
193P/LINEAR-NEAT,e,10.6868,335.1914,8.2495,3.575811,0.1457613,0.39404882,297.6550,06/24.0/2020,2000,g 14.0,4.0
# From MPC 98566
194P/LINEAR,e,11.1836,351.5728,130.7756,3.986090,0.1238464,0.57791043,195.0542,06/24.0/2020,2000,g 16.0,4.0
# From MPC 75724
195P/Hill,e,36.3408,243.1002,249.4663,6.498604,0.0594941,0.31325445,249.2234,06/24.0/2020,2000,g  8.5,4.0
# From MPC 92985
196P/Tichy,e,19.3007,24.2046,12.3118,3.797968,0.1331610,0.42861529,245.7132,06/24.0/2020,2000,g 13.5,4.0
# From MPC 94676
197P/LINEAR,e,25.5482,66.3941,188.7361,2.867292,0.2030001,0.62990541,178.0481,06/24.0/2020,2000,g 16.5,2.0
# From NK 1596
198P/ODAS,e,1.3386,358.2507,69.2550,3.600443,0.1442681,0.44311893,80.5337,06/24.0/2020,2000,g  9.0,4.0
# From MPC 75725
199P/Shoemaker,e,24.9354,92.3992,191.5780,5.898112,0.0688073,0.50608793,281.5919,06/24.0/2020,2000,g 10.0,4.0
# From MPC118098
200P/Larsen,e,12.1041,234.8035,134.0083,4.937489,0.0898348,0.33219060,29.7618,06/24.0/2020,2000,g  9.0,4.0
# From MPC 93588
201P/LONEOS,e,5.7363,19.8759,41.3494,3.359422,0.1600690,0.63754739,306.1386,06/24.0/2020,2000,g 14.0,4.0
# From MPC103849
202P/Scotti,e,2.0297,181.6585,275.3287,3.993793,0.1234883,0.28476818,185.4734,06/24.0/2020,2000,g 13.5,4.0
# From MPEC 2019-TG9
203P/Korlevic,e,2.9734,290.3487,154.8625,4.671077,0.0976289,0.31499057,10.8400,06/24.0/2020,2000,g 14.5,2.0
# From MPC 98566
204P/LINEAR-NEAT,e,6.6388,108.8419,354.9611,3.627084,0.1426815,0.48222255,234.8573,06/24.0/2020,2000,g 14.0,4.0
# From MPC 98566
205P/Giacobini,e,15.3014,179.5998,154.1864,3.542925,0.1477955,0.56784277,275.9797,06/24.0/2020,2000,g 13.0,4.0
# From MPC 75725
206P/Barnard-Boattini,e,33.6305,202.3647,189.4383,3.488583,0.1512622,0.55144083,321.6605,06/24.0/2020,2000,g 19.0,4.0
# From MPC 75725
207P/NEAT,e,10.1513,199.5133,272.0299,3.865036,0.1297101,0.76016639,188.8468,06/24.0/2020,2000,g 16.0,4.0
# From MPC101100
208P/McMillan,e,4.4091,36.3654,310.3898,4.047203,0.1210519,0.37331184,175.8056,06/24.0/2020,2000,g 12.5,4.0
# From MPC 90771
209P/LINEAR,e,21.2582,62.7667,152.4857,2.960412,0.1934977,0.67323022,72.9925,06/24.0/2020,2000,g 17.0,2.0
# From MPC105242
210P/Christensen,e,10.2619,93.8354,345.9077,3.165701,0.1749844,0.83321755,13.4873,06/24.0/2020,2000,g 13.5,4.0
# From MPC 96868
211P/Hill,e,18.9217,117.1389,4.1370,3.548745,0.1474320,0.34250987,237.1882,06/24.0/2020,2000,g 12.5,4.0
# From MPC104795
212P/NEAT,e,22.5980,98.6673,14.2242,3.880936,0.1289138,0.58936877,178.4344,06/24.0/2020,2000,g 17.0,2.0
# From MPC114608
213P/Van Ness,e,10.3825,311.3000,5.6029,3.348222,0.1608729,0.40810255,161.3590,06/24.0/2020,2000,g 10.5,4.0
# From MPC 92986
214P/LINEAR,e,15.1858,348.2609,190.2855,3.616000,0.1433381,0.48597813,241.8367,06/24.0/2020,2000,g 13.0,4.0
# From MPC118098
215P/NEAT,e,10.5815,56.6835,262.0727,4.327885,0.1094688,0.16706123,23.9464,06/24.0/2020,2000,g 11.0,4.0
# From MPC100284
216P/LINEAR,e,9.0514,359.8193,151.3700,3.870122,0.1294545,0.44554768,192.4108,06/24.0/2020,2000,g 13.0,4.0
# From MPC108598
217P/LINEAR,e,12.8643,125.4772,246.8473,3.951777,0.1254630,0.68825936,134.6427,06/24.0/2020,2000,g 12.0,4.0
# From MPEC 2020-L06
218P/LINEAR,e,2.7254,175.9759,59.7828,3.094079,0.1810952,0.62188406,341.5692,06/24.0/2020,2000,g 16.0,4.0
# From MPC100284
219P/LINEAR,e,11.5292,230.9985,107.3574,3.650944,0.1412851,0.35354977,172.1695,06/24.0/2020,2000,g 11.0,4.0
# From MPEC 2020-L06
220P/McNaught,e,8.1279,150.1081,180.5488,3.116008,0.1791869,0.50186644,329.5986,06/24.0/2020,2000,g 15.0,4.0
# From MPC 93589
221P/LINEAR,e,11.4261,229.7232,40.0428,3.457756,0.1532896,0.49283880,276.9273,06/24.0/2020,2000,g 14.5,4.0
# From MPC 92277
222P/LINEAR,e,5.0949,6.7962,346.2278,2.899350,0.1996425,0.71440504,76.8441,06/24.0/2020,2000,g 20.0,4.0
# From MPEC 2020-HN5
223P/Skiff,e,27.0169,346.7754,37.8200,4.159107,0.1161994,0.41567567,59.6942,06/24.0/2020,2000,g 12.0,4.0
# From MPC 75727
224P/LINEAR-NEAT,e,13.3233,40.3516,16.7959,3.437381,0.1546545,0.40850540,231.9767,06/24.0/2020,2000,g 15.5,4.0
# From MPC 75727
225P/LINEAR,e,21.3490,14.1836,3.8669,3.651087,0.1412768,0.63761641,198.8465,06/24.0/2020,2000,g 18.0,4.0
# From MPC106349
226P/Pigott-LINEAR-Kowalski,e,44.0072,54.0050,341.0522,3.767924,0.1347568,0.52817894,187.2091,06/24.0/2020,2000,g 12.5,4.0
# From MPC102956
227P/Catalina-LINEAR,e,6.5088,49.4250,90.1325,3.570219,0.1461039,0.50574361,160.1494,06/24.0/2020,2000,g 16.5,2.0
# From MPEC 2020-L06
228P/LINEAR,e,7.9099,30.9850,115.2900,4.173550,0.1155968,0.17676315,12.1842,06/24.0/2020,2000,g 14.5,2.0
# From MPC106349
229P/Gibbs,e,26.0856,157.8991,223.9802,3.931437,0.1264378,0.37650661,142.9190,06/24.0/2020,2000,g 13.0,4.0
# From MPC110497
230P/LINEAR,e,15.5169,107.0197,313.6770,3.447630,0.1539654,0.54882684,262.6819,06/24.0/2020,2000,g 13.0,4.0
# From MPC114608
231P/LINEAR-NEAT,e,12.3343,133.0238,42.8816,4.018625,0.1223455,0.24764872,45.9006,06/24.0/2020,2000,g 14.5,2.0
# From MPC112394
232P/Hill,e,14.6310,56.0212,53.4870,4.482490,0.1038544,0.33428189,46.1906,06/24.0/2020,2000,g 11.5,4.0
# From MPC 92986
233P/La Sagra,e,11.2840,74.9272,27.0653,3.030454,0.1868282,0.41175812,341.3757,06/24.0/2020,2000,g 15.0,4.0
# From MPC110497
234P/LINEAR,e,11.5245,179.5681,357.3845,3.802991,0.1328973,0.25409204,149.0590,06/24.0/2020,2000,g 12.0,4.0
# From MPC110497
235P/LINEAR,e,8.8874,203.8935,333.5185,3.983051,0.1239882,0.31959575,102.9544,06/24.0/2020,2000,g 12.0,4.0
# From MPC107688
236P/LINEAR,e,16.3338,245.6549,119.1974,3.731249,0.1367485,0.50844588,129.4430,06/24.0/2020,2000,g 14.0,4.0
# From MPC109593
